{"type": "FeatureCollection", "features": [ {"type": "Feature", "properties": {"norad_id": 32183, "name": "FENGYUN 1C DEB", "group": "fengyun-1c-debris", "lat": 37.180271582664325, "lon": 31.945820026133806, "alt_km": 827.4071815761054, "timestamp": "2025-12-13T10:41:26.052011+00:00", "meta": {"OBJECT_NAME": "FENGYUN 1C DEB", "OBJECT_ID": "1999-025CUD", "EPOCH": "2025-12-12T08:58:08.411808", "MEAN_MOTION": 14.10083628, "ECCENTRICITY": 0.00428392, "INCLINATION": 98.7133, "RA_OF_ASC_NODE": 37.5876, "ARG_OF_PERICENTER": 61.9677, "MEAN_ANOMALY": 298.5817, "EPHEMERIS_TYPE": 0, "CLASSIFICATION_TYPE": "U", "NORAD_CAT_ID": 32183, "ELEMENT_SET_NO": 999, "REV_AT_EPOCH": 72759, "BSTAR": 0.00097760339, "MEAN_MOTION_DOT": 1.7e-05, "MEAN_MOTION_DDOT": 0}, "tle": {"line1": "1 32183U 99025CUD 25346.37370847  .00001700  00000+0  97760-3 0  9990", "line2": "2 32183  98.7133  37.5876 0042839  61.9677 298.5817 14.10083628727591"}}, "geometry": {"type": "Point", "coordinates": [31.945820026133806, 37.180271582664325]}}, {"type": "Feature", "properties": {"norad_id": 32184, "name": "FENGYUN 1C DEB", "group": "fengyun-1c-debris", "lat": -30.742505003473877, "lon": -58.012128768853024, "alt_km": 474.1935747434027, "timestamp": "2025-12-13T10:41:26.052022+00:00", "meta": {"OBJECT_NAME": "FENGYUN 1C DEB", "OBJECT_ID": "1999-025CUE", "EPOCH": "2025-12-11T20:26:33.329760", "MEAN_MOTION": 15.43676436, "ECCENTRICITY": 0.0071194, "INCLINATION": 98.1199, "RA_OF_ASC_NODE": 125.0815, "ARG_OF_PERICENTER": 351.2371, "MEAN_ANOMALY": 8.7626, "EPHEMERIS_TYPE": 0, "CLASSIFICATION_TYPE": "U", "NORAD_CAT_ID": 32184, "ELEMENT_SET_NO": 999, "REV_AT_EPOCH": 98390, "BSTAR": 0.0018813, "MEAN_MOTION_DOT": 0.00094038, "MEAN_MOTION_DDOT": 0}, "tle": {"line1": "1 32184U 99025CUE 25345.85177465  .00094038  00000+0  18813-2 0  9991", "line2": "2 32184  98.1199 125.0815 0071194 351.2371   8.7626 15.43676436983906"}}, "geometry": {"type": "Point", "coordinates": [-58.012128768853024, -30.742505003473877]}}, {"type": "Feature", "properties": {"norad_id": 32185, "name": "FENGYUN 1C DEB", "group": "fengyun-1c-debris", "lat": -27.859724796443377, "lon": -161.43325442564446, "alt_km": 476.12602470993625, "timestamp": "2025-12-13T10:41:26.052032+00:00", "meta": {"OBJECT_NAME": "FENGYUN 1C DEB", "OBJECT_ID": "1999-025CUF", "EPOCH": "2025-12-12T20:26:16.674432", "MEAN_MOTION": 15.03513585, "ECCENTRICITY": 0.01622146, "INCLINATION": 98.905, "RA_OF_ASC_NODE": 193.1299, "ARG_OF_PERICENTER": 14.9089, "MEAN_ANOMALY": 345.6833, "EPHEMERIS_TYPE": 0, "CLASSIFICATION_TYPE": "U", "NORAD_CAT_ID": 32185, "ELEMENT_SET_NO": 999, "REV_AT_EPOCH": 95017, "BSTAR": 0.0041779735, "MEAN_MOTION_DOT": 0.00076781, "MEAN_MOTION_DDOT": 0}, "tle": {"line1": "1 32185U 99025CUF 25346.85158188  .00076781  00000+0  41780-2 0  9998", "line2": "2 32185  98.9050 193.1299 0162214  14.9089 345.6833 15.03513585950173"}}, "geometry": {"type": "Point", "coordinates": [-161.43325442564446, -27.859724796443377]}}, {"type": "Feature", "properties": {"norad_id": 32186, "name": "FENGYUN 1C DEB", "group": "fengyun-1c-debris", "lat": -56.76542365881852, "lon": 52.923504879683364, "alt_km": 1023.9645344403207, "timestamp": "2025-12-13T10:41:26.052042+00:00", "meta": {"OBJECT_NAME": "FENGYUN 1C DEB", "OBJECT_ID": "1999-025CUG", "EPOCH": "2025-12-09T09:24:32.827968", "MEAN_MOTION": 13.76498707, "ECCENTRICITY": 0.02746783, "INCLINATION": 99.6097, "RA_OF_ASC_NODE": 33.8435, "ARG_OF_PERICENTER": 209.4403, "MEAN_ANOMALY": 173.7978, "EPHEMERIS_TYPE": 0, "CLASSIFICATION_TYPE": "U", "NORAD_CAT_ID": 32186, "ELEMENT_SET_NO": 999, "REV_AT_EPOCH": 62564, "BSTAR": 0.0015629135, "MEAN_MOTION_DOT": 1.972e-05, "MEAN_MOTION_DDOT": 0}, "tle": {"line1": "1 32186U 99025CUG 25343.39204662  .00001972  00000+0  15629-2 0  9997", "line2": "2 32186  99.6097  33.8435 0274678 209.4403 173.7978 13.76498707625641"}}, "geometry": {"type": "Point", "coordinates": [52.923504879683364, -56.76542365881852]}}, {"type": "Feature", "properties": {"norad_id": 32187, "name": "FENGYUN 1C DEB", "group": "fengyun-1c-debris", "lat": 34.61292315509743, "lon": 59.734220913145045, "alt_km": 1133.2232803764418, "timestamp": "2025-12-13T10:41:26.052053+00:00", "meta": {"OBJECT_NAME": "FENGYUN 1C DEB", "OBJECT_ID": "1999-025CUH", "EPOCH": "2025-12-12T04:25:44.596416", "MEAN_MOTION": 13.50496102, "ECCENTRICITY": 0.02944417, "INCLINATION": 99.5053, "RA_OF_ASC_NODE": 65.1685, "ARG_OF_PERICENTER": 147.3043, "MEAN_ANOMALY": 244.1082, "EPHEMERIS_TYPE": 0, "CLASSIFICATION_TYPE": "U", "NORAD_CAT_ID": 32187, "ELEMENT_SET_NO": 999, "REV_AT_EPOCH": 66251, "BSTAR": 0.00072461752, "MEAN_MOTION_DOT": 5.68e-06, "MEAN_MOTION_DDOT": 0}, "tle": {"line1": "1 32187U 99025CUH 25346.18454394  .00000568  00000+0  72462-3 0  9996", "line2": "2 32187  99.5053  65.1685 0294441 147.3043 244.1082 13.50496102662513"}}, "geometry": {"type": "Point", "coordinates": [59.734220913145045, 34.61292315509743]}}, {"type": "Feature", "properties": {"norad_id": 32191, "name": "FENGYUN 1C DEB", "group": "fengyun-1c-debris", "lat": -20.866533158529332, "lon": 46.89288545736222, "alt_km": 873.7788027430843, "timestamp": "2025-12-13T10:41:26.052063+00:00", "meta": {"OBJECT_NAME": "FENGYUN 1C DEB", "OBJECT_ID": "1999-025CUM", "EPOCH": "2025-12-12T09:31:01.273728", "MEAN_MOTION": 14.25192776, "ECCENTRICITY": 0.0093788, "INCLINATION": 98.7073, "RA_OF_ASC_NODE": 42.503, "ARG_OF_PERICENTER": 187.4274, "MEAN_ANOMALY": 172.5522, "EPHEMERIS_TYPE": 0, "CLASSIFICATION_TYPE": "U", "NORAD_CAT_ID": 32191, "ELEMENT_SET_NO": 999, "REV_AT_EPOCH": 64496, "BSTAR": 0.002278977, "MEAN_MOTION_DOT": 5.565e-05, "MEAN_MOTION_DDOT": 0}, "tle": {"line1": "1 32191U 99025CUM 25346.39654252  .00005565  00000+0  22790-2 0  9999", "line2": "2 32191  98.7073  42.5030 0093788 187.4274 172.5522 14.25192776644961"}}, "geometry": {"type": "Point", "coordinates": [46.89288545736222, -20.866533158529332]}}, {"type": "Feature", "properties": {"norad_id": 32192, "name": "FENGYUN 1C DEB", "group": "fengyun-1c-debris", "lat": 6.9033365161603015, "lon": -142.79265088763114, "alt_km": 1075.5483699240604, "timestamp": "2025-12-13T10:41:26.052073+00:00", "meta": {"OBJECT_NAME": "FENGYUN 1C DEB", "OBJECT_ID": "1999-025CUN", "EPOCH": "2025-12-10T02:45:21.500352", "MEAN_MOTION": 13.82509568, "ECCENTRICITY": 0.01815944, "INCLINATION": 98.6529, "RA_OF_ASC_NODE": 215.2024, "ARG_OF_PERICENTER": 169.561, "MEAN_ANOMALY": 190.9397, "EPHEMERIS_TYPE": 0, "CLASSIFICATION_TYPE": "U", "NORAD_CAT_ID": 32192, "ELEMENT_SET_NO": 999, "REV_AT_EPOCH": 92676, "BSTAR": 0.00038665557, "MEAN_MOTION_DOT": 4.37e-06, "MEAN_MOTION_DDOT": 0}, "tle": {"line1": "1 32192U 99025CUN 25344.11483218  .00000437  00000+0  38666-3 0  9993", "line2": "2 32192  98.6529 215.2024 0181594 169.5610 190.9397 13.82509568926765"}}, "geometry": {"type": "Point", "coordinates": [-142.79265088763114, 6.9033365161603015]}}, {"type": "Feature", "properties": {"norad_id": 32195, "name": "FENGYUN 1C DEB", "group": "fengyun-1c-debris", "lat": -22.874851591731723, "lon": -6.427114308558178, "alt_km": 830.7311435558895, "timestamp": "2025-12-13T10:41:26.052084+00:00", "meta": {"OBJECT_NAME": "FENGYUN 1C DEB", "OBJECT_ID": "1999-025CUR", "EPOCH": "2025-12-04T06:51:46.584576", "MEAN_MOTION": 14.08440247, "ECCENTRICITY": 0.0068891, "INCLINATION": 98.773, "RA_OF_ASC_NODE": 340.9294, "ARG_OF_PERICENTER": 324.3515, "MEAN_ANOMALY": 35.3064, "EPHEMERIS_TYPE": 0, "CLASSIFICATION_TYPE": "U", "NORAD_CAT_ID": 32195, "ELEMENT_SET_NO": 999, "REV_AT_EPOCH": 63863, "BSTAR": 0.0010039, "MEAN_MOTION_DOT": 1.715e-05, "MEAN_MOTION_DDOT": 0}, "tle": {"line1": "1 32195U 99025CUR 25338.28595584  .00001715  00000+0  10039-2 0  9990", "line2": "2 32195  98.7730 340.9294 0068891 324.3515  35.3064 14.08440247638633"}}, "geometry": {"type": "Point", "coordinates": [-6.427114308558178, -22.874851591731723]}}, {"type": "Feature", "properties": {"norad_id": 32197, "name": "FENGYUN 1C DEB", "group": "fengyun-1c-debris", "lat": 22.420076479246976, "lon": 80.25158817433841, "alt_km": 742.5992809227982, "timestamp": "2025-12-13T10:41:26.052108+00:00", "meta": {"OBJECT_NAME": "FENGYUN 1C DEB", "OBJECT_ID": "1999-025CUT", "EPOCH": "2025-12-10T12:24:38.958912", "MEAN_MOTION": 14.32658071, "ECCENTRICITY": 0.01611781, "INCLINATION": 98.901, "RA_OF_ASC_NODE": 253.5369, "ARG_OF_PERICENTER": 236.4218, "MEAN_ANOMALY": 307.9774, "EPHEMERIS_TYPE": 0, "CLASSIFICATION_TYPE": "U", "NORAD_CAT_ID": 32197, "ELEMENT_SET_NO": 999, "REV_AT_EPOCH": 94391, "BSTAR": 0.0006387504, "MEAN_MOTION_DOT": 1.954e-05, "MEAN_MOTION_DDOT": 0}, "tle": {"line1": "1 32197U 99025CUT 25344.51711758  .00001954  00000+0  63875-3 0  9990", "line2": "2 32197  98.9010 253.5369 0161178 236.4218 307.9774 14.32658071943914"}}, "geometry": {"type": "Point", "coordinates": [80.25158817433841, 22.420076479246976]}}, {"type": "Feature", "properties": {"norad_id": 32198, "name": "FENGYUN 1C DEB", "group": "fengyun-1c-debris", "lat": 74.84652246156206, "lon": -12.911064609782382, "alt_km": 923.9921919133885, "timestamp": "2025-12-13T10:41:26.052122+00:00", "meta": {"OBJECT_NAME": "FENGYUN 1C DEB", "OBJECT_ID": "1999-025CUU", "EPOCH": "2025-12-11T03:39:24.233184", "MEAN_MOTION": 14.08810013, "ECCENTRICITY": 0.00944941, "INCLINATION": 98.343, "RA_OF_ASC_NODE": 132.1567, "ARG_OF_PERICENTER": 297.2193, "MEAN_ANOMALY": 61.9373, "EPHEMERIS_TYPE": 0, "CLASSIFICATION_TYPE": "U", "NORAD_CAT_ID": 32198, "ELEMENT_SET_NO": 999, "REV_AT_EPOCH": 56923, "BSTAR": 0.0023788131, "MEAN_MOTION_DOT": 4.239e-05, "MEAN_MOTION_DDOT": 0}, "tle": {"line1": "1 32198U 99025CUU 25345.15236381  .00004239  00000+0  23788-2 0  9993", "line2": "2 32198  98.3430 132.1567 0094494 297.2193  61.9373 14.08810013569230"}}, "geometry": {"type": "Point", "coordinates": [-12.911064609782382, 74.84652246156206]}}]}